CTC2_L_00559125-01
1 45677U 22426ZQ  26037.47798611  .00000000  00000+0  00000-0 0  9995
2 45677  99.0000 297.6000 0000000   0.0000 235.2000 13.98209858    19
CTC2_L_00559125-02
1 45678U 23666EQ  26037.47798611  .00000000  00000+0  00000-0 0  9993
2 45678  99.0000 297.6000 0000000   0.0000  55.2000 13.98209858    10
CTC2_L_00559126-01
1 45679U 26618TZ  26037.47798611  .00000000  00000+0  00000-0 0  9994
2 45679  99.0000 300.0000 0000000   0.0000 240.0000 13.98209858    14
CTC2_L_00559126-02
1 45680U 25247KY  26037.47798611  .00000000  00000+0  00000-0 0  9993
2 45680  99.0000 300.0000 0000000   0.0000  60.0000 13.98209858    16
CTC2_L_00559127-01
1 45681U 24573RA  26037.47798611  .00000000  00000+0  00000-0 0  9995
2 45681  99.0000 302.4000 0000000   0.0000 244.8000 13.98209858    15
CTC2_L_00559127-02
1 45682U 25336UW  26037.47798611  .00000000  00000+0  00000-0 0  9994
2 45682  99.0000 302.4000 0000000   0.0000  64.8000 13.98209858    16
CTC2_L_00559128-01
1 45683U 23891LM  26037.47798611  .00000000  00000+0  00000-0 0  9999
2 45683  99.0000 304.8000 0000000   0.0000 249.6000 13.98209858    16
CTC2_L_00559128-02
1 45684U 22147VI  26037.47798611  .00000000  00000+0  00000-0 0  9993
2 45684  99.0000 304.8000 0000000   0.0000  69.6000 13.98209858    17
CTC2_L_00559129-01
1 45685U 24184WZ  26037.47798611  .00000000  00000+0  00000-0 0  9997
2 45685  99.0000 307.2000 0000000   0.0000 254.4000 13.98209858    19
CTC2_L_00559129-02
1 45686U 25191HM  26037.47798611  .00000000  00000+0  00000-0 0  9997
2 45686  99.0000 307.2000 0000000   0.0000  74.4000 13.98209858    10
CTC2_L_00559130-01
1 45687U 25209BP  26037.47798611  .00000000  00000+0  00000-0 0  9998
2 45687  99.0000 309.6000 0000000   0.0000 259.2000 13.98209858    10
CTC2_L_00559130-02
1 45688U 23099NU  26037.47798611  .00000000  00000+0  00000-0 0  9994
2 45688  99.0000 309.6000 0000000   0.0000  79.2000 13.98209858    11
CTC2_L_00559131-01
1 45689U 23081ZG  26037.47798611  .00000000  00000+0  00000-0 0  9996
2 45689  99.0000 312.0000 0000000   0.0000 264.0000 13.98209858    14
CTC2_L_00559131-02
1 45690U 25762BN  26037.47798611  .00000000  00000+0  00000-0 0  9996
2 45690  99.0000 312.0000 0000000   0.0000  84.0000 13.98209858    16
CTC2_L_00559132-01
1 45691U 22694MN  26037.47798611  .00000000  00000+0  00000-0 0  9998
2 45691  99.0000 314.4000 0000000   0.0000 268.8000 13.98209858    15
CTC2_L_00559132-02
1 45692U 24237AI  26037.47798611  .00000000  00000+0  00000-0 0  9994
2 45692  99.0000 314.4000 0000000   0.0000  88.8000 13.98209858    16
CTC2_L_00559133-01
1 45693U 23440TJ  26037.47798611  .00000000  00000+0  00000-0 0  9990
2 45693  99.0000 316.8000 0000000   0.0000 273.6000 13.98209858    17
CTC2_L_00559133-02
1 45694U 26339DV  26037.47798611  .00000000  00000+0  00000-0 0  9991
2 45694  99.0000 316.8000 0000000   0.0000  93.6000 13.98209858    18
CTC2_L_00559134-01
1 45695U 24659MT  26037.47798611  .00000000  00000+0  00000-0 0  9995
2 45695  99.0000 319.2000 0000000   0.0000 278.4000 13.98209858    19
CTC2_L_00559134-02
1 45696U 25260JX  26037.47798611  .00000000  00000+0  00000-0 0  9995
2 45696  99.0000 319.2000 0000000   0.0000  98.4000 13.98209858    10
CTC2_L_00559135-01
1 45697U 25630HJ  26037.47798611  .00000000  00000+0  00000-0 0  9997
2 45697  99.0000 321.6000 0000000   0.0000 283.2000 13.98209858    12
CTC2_L_00559135-02
1 45698U 22903DM  26037.47798611  .00000000  00000+0  00000-0 0  9998
2 45698  99.0000 321.6000 0000000   0.0000 103.2000 13.98209858    14
CTC2_L_00559136-01
1 45699U 23716GE  26037.47798611  .00000000  00000+0  00000-0 0  9992
2 45699  99.0000 324.0000 0000000   0.0000 288.0000 13.98209858    14
CTC2_L_00559136-02
1 45700U 26987PM  26037.47798611  .00000000  00000+0  00000-0 0  9998
2 45700  99.0000 324.0000 0000000   0.0000 108.0000 13.98209858    18
CTC2_L_00559137-01
1 45701U 26958AC  26037.47798611  .00000000  00000+0  00000-0 0  9997
2 45701  99.0000 326.4000 0000000   0.0000 292.8000 13.98209858    17
CTC2_L_00559137-02
1 45702U 25284EN  26037.47798611  .00000000  00000+0  00000-0 0  9999
2 45702  99.0000 326.4000 0000000   0.0000 112.8000 13.98209858    19
CTC2_L_00559138-01
1 45703U 25140UD  26037.47798611  .00000000  00000+0  00000-0 0  9991
2 45703  99.0000 328.8000 0000000   0.0000 297.6000 13.98209858    18
CTC2_L_00559138-02
1 45704U 22471QZ  26037.47798611  .00000000  00000+0  00000-0 0  9996
2 45704  99.0000 328.8000 0000000   0.0000 117.6000 13.98209858    10
CTC2_L_00559139-01
1 45705U 25340TG  26037.47798611  .00000000  00000+0  00000-0 0  9995
2 45705  99.0000 331.2000 0000000   0.0000 302.4000 13.98209858    13
CTC2_L_00559139-02
1 45706U 25774JO  26037.47798611  .00000000  00000+0  00000-0 0  9997
2 45706  99.0000 331.2000 0000000   0.0000 122.4000 13.98209858    14
CTC2_L_00559140-01
1 45707U 22465KK  26037.47798611  .00000000  00000+0  00000-0 0  9992
2 45707  99.0000 333.6000 0000000   0.0000 307.2000 13.98209858    14
CTC2_L_00559140-02
1 45708U 23551KR  26037.47798611  .00000000  00000+0  00000-0 0  9990
2 45708  99.0000 333.6000 0000000   0.0000 127.2000 13.98209858    15
CTC2_L_00559141-01
1 45709U 24682QZ  26037.47798611  .00000000  00000+0  00000-0 0  9997
2 45709  99.0000 336.0000 0000000   0.0000 312.0000 13.98209858    17
CTC2_L_00559141-02
1 45710U 23064WX  26037.47798611  .00000000  00000+0  00000-0 0  9992
2 45710  99.0000 336.0000 0000000   0.0000 132.0000 13.98209858    19
CTC2_L_00559142-01
1 45711U 24546AF  26037.47798611  .00000000  00000+0  00000-0 0  9999
2 45711  99.0000 338.4000 0000000   0.0000 316.8000 13.98209858    18
CTC2_L_00559142-02
1 45712U 25464TR  26037.47798611  .00000000  00000+0  00000-0 0  9990
2 45712  99.0000 338.4000 0000000   0.0000 136.8000 13.98209858    19
CTC2_L_00559143-01
1 45713U 25197WO  26037.47798611  .00000000  00000+0  00000-0 0  9994
2 45713  99.0000 340.8000 0000000   0.0000 321.6000 13.98209858    11
CTC2_L_00559143-02
1 45714U 25425CY  26037.47798611  .00000000  00000+0  00000-0 0  9999
2 45714  99.0000 340.8000 0000000   0.0000 141.6000 13.98209858    12
CTC2_L_00559144-01
1 45715U 23297SA  26037.47798611  .00000000  00000+0  00000-0 0  9995
2 45715  99.0000 343.2000 0000000   0.0000 326.4000 13.98209858    13
CTC2_L_00559144-02
1 45716U 22290PA  26037.47798611  .00000000  00000+0  00000-0 0  9998
2 45716  99.0000 343.2000 0000000   0.0000 146.4000 13.98209858    14
CTC2_L_00559145-01
1 45717U 25946CH  26037.47798611  .00000000  00000+0  00000-0 0  9990
2 45717  99.0000 345.6000 0000000   0.0000 331.2000 13.98209858    15
CTC2_L_00559145-02
1 45718U 22833VT  26037.47798611  .00000000  00000+0  00000-0 0  9993
2 45718  99.0000 345.6000 0000000   0.0000 151.2000 13.98209858    16
CTC2_L_00559146-01
1 45719U 23706WG  26037.47798611  .00000000  00000+0  00000-0 0  9994
2 45719  99.0000 348.0000 0000000   0.0000 336.0000 13.98209858    17
CTC2_L_00559146-02
1 45720U 22735RI  26037.47798611  .00000000  00000+0  00000-0 0  9997
2 45720  99.0000 348.0000 0000000   0.0000 156.0000 13.98209858    19
CTC2_L_00559147-01
1 45721U 23037CD  26037.47798611  .00000000  00000+0  00000-0 0  9994
2 45721  99.0000 350.4000 0000000   0.0000 340.8000 13.98209858    10
CTC2_L_00559147-02
1 45722U 23667ZW  26037.47798611  .00000000  00000+0  00000-0 0  9994
2 45722  99.0000 350.4000 0000000   0.0000 160.8000 13.98209858    11
CTC2_L_00559148-01
1 45723U 25441VG  26037.47798611  .00000000  00000+0  00000-0 0  9997
2 45723  99.0000 352.8000 0000000   0.0000 345.6000 13.98209858    11
CTC2_L_00559148-02
1 45724U 26195GA  26037.47798611  .00000000  00000+0  00000-0 0  9995
2 45724  99.0000 352.8000 0000000   0.0000 165.6000 13.98209858    12
CTC2_L_00559149-01
1 45725U 25284MU  26037.47798611  .00000000  00000+0  00000-0 0  9994
2 45725  99.0000 355.2000 0000000   0.0000 350.4000 13.98209858    14
CTC2_L_00559149-02
1 45726U 23501MT  26037.47798611  .00000000  00000+0  00000-0 0  9995
2 45726  99.0000 355.2000 0000000   0.0000 170.4000 13.98209858    15
CTC2_L_00559150-01
1 45727U 26347GC  26037.47798611  .00000000  00000+0  00000-0 0  9997
2 45727  99.0000 357.6000 0000000   0.0000 355.2000 13.98209858    15
CTC2_L_00559150-02
1 45728U 23210EA  26037.47798611  .00000000  00000+0  00000-0 0  9994
2 45728  99.0000 357.6000 0000000   0.0000 175.2000 13.98209858    16
